[{"OBJECT_NAME":"FLOCK 4G-8","OBJECT_ID":"2025-009E","EPOCH":"2026-03-09T17:22:17.546016","MEAN_MOTION":15.27623414,"ECCENTRICITY":0.00030503,"INCLINATION":97.4045,"RA_OF_ASC_NODE":151.2834,"ARG_OF_PERICENTER":315.2538,"MEAN_ANOMALY":44.8455,"EPHEMERIS_TYPE":0,"CLASSIFICATION_TYPE":"U","NORAD_CAT_ID":62613,"ELEMENT_SET_NO":999,"REV_AT_EPOCH":6372,"BSTAR":0.0005043806,"MEAN_MOTION_DOT":0.00013559,"MEAN_MOTION_DDOT":0},{"OBJECT_NAME":"STARLINK-32878","OBJECT_ID":"2025-024P","EPOCH":"2026-03-09T02:18:13.586976","MEAN_MOTION":15.27569647,"ECCENTRICITY":0.00027164,"INCLINATION":43.0033,"RA_OF_ASC_NODE":328.8511,"ARG_OF_PERICENTER":258.6168,"MEAN_ANOMALY":101.4379,"EPHEMERIS_TYPE":0,"CLASSIFICATION_TYPE":"U","NORAD_CAT_ID":62892,"ELEMENT_SET_NO":999,"REV_AT_EPOCH":6217,"BSTAR":0.00015335677,"MEAN_MOTION_DOT":3.959e-5,"MEAN_MOTION_DDOT":0}]
